[{"OBJECT_NAME":"KUZGTU 1 (RS47S)","OBJECT_ID":"2023-091AV","EPOCH":"2026-03-09T22:22:51.965760","MEAN_MOTION":15.27481352,"ECCENTRICITY":0.0012896,"INCLINATION":97.5178,"RA_OF_ASC_NODE":132.5224,"ARG_OF_PERICENTER":89.3666,"MEAN_ANOMALY":270.9051,"EPHEMERIS_TYPE":0,"CLASSIFICATION_TYPE":"U","NORAD_CAT_ID":57217,"ELEMENT_SET_NO":999,"REV_AT_EPOCH":14921,"BSTAR":0.00057711473,"MEAN_MOTION_DOT":0.00015496,"MEAN_MOTION_DDOT":0},{"OBJECT_NAME":"STARLINK-31404","OBJECT_ID":"2024-073L","EPOCH":"2026-03-09T21:33:27.327744","MEAN_MOTION":15.27578812,"ECCENTRICITY":0.00016492,"INCLINATION":43.0007,"RA_OF_ASC_NODE":317.1748,"ARG_OF_PERICENTER":254.8656,"MEAN_ANOMALY":105.2014,"EPHEMERIS_TYPE":0,"CLASSIFICATION_TYPE":"U","NORAD_CAT_ID":59521,"ELEMENT_SET_NO":999,"REV_AT_EPOCH":10620,"BSTAR":0.00036220138,"MEAN_MOTION_DOT":9.718e-5,"MEAN_MOTION_DDOT":0}]
